ONEWEB-0597             
1 54663U 22166X   25064.80145231  .00000034  00000+0  50925-4 0  9993
2 54663  87.9350 337.3547 0001650  86.8568 273.2755 13.21826526109662
ONEWEB-0600             
1 54664U 22166Y   25064.78410133  .00000067  00000+0  12993-3 0  9995
2 54664  87.9332 337.3801 0001792  84.3796 275.7543 13.21825082109634
ONEWEB-0601             
1 54665U 22166Z   25064.77621017  .00000092  00000+0  19047-3 0  9995
2 54665  87.9352 337.3688 0001457  88.4405 271.6895 13.21824990109823
ONEWEB-0602             
1 54666U 22166AA  25064.81722213 -.00000017  00000+0 -71964-4 0  9997
2 54666  87.9352 337.3620 0001767  87.8618 272.2718 13.21825212109675
ONEWEB-0603             
1 54667U 22166AB  25064.82194918 -.00000008  00000+0 -52037-4 0  9994
2 54667  87.9326 337.3318 0001626  87.8937 272.2383 13.21825197109602
ONEWEB-0604             
1 54668U 22166AC  25065.11211846 -.00000077  00000+0 -21782-3 0  9996
2 54668  87.9344 337.2706 0001792  89.3764 270.7575 13.21824449110070
ONEWEB-0605             
1 54669U 22166AD  25064.80302056 -.00000026  00000+0 -94290-4 0  9995
2 54669  87.9345 337.3631 0001049  88.1866 271.9388 13.21824235109633
ONEWEB-0606             
1 54670U 22166AE  25065.12789129  .00000012  00000+0 -32279-5 0  9997
2 54670  87.9351 337.3032 0001909  72.9587 287.1756 13.21825061110192
